[{"OBJECT_NAME":"GRACE-FO 2","OBJECT_ID":"2018-047B","EPOCH":"2026-03-09T22:18:30.629952","MEAN_MOTION":15.37442345,"ECCENTRICITY":0.00130795,"INCLINATION":88.9902,"RA_OF_ASC_NODE":211.5805,"ARG_OF_PERICENTER":129.3432,"MEAN_ANOMALY":230.8984,"EPHEMERIS_TYPE":0,"CLASSIFICATION_TYPE":"U","NORAD_CAT_ID":43477,"ELEMENT_SET_NO":999,"REV_AT_EPOCH":43454,"BSTAR":0.00017253527,"MEAN_MOTION_DOT":6.378e-5,"MEAN_MOTION_DDOT":0},{"OBJECT_NAME":"STARLINK-35085","OBJECT_ID":"2025-192R","EPOCH":"2026-03-09T17:42:00.572832","MEAN_MOTION":15.36219796,"ECCENTRICITY":3.993e-5,"INCLINATION":53.1594,"RA_OF_ASC_NODE":231.98,"ARG_OF_PERICENTER":74.5933,"MEAN_ANOMALY":285.5115,"EPHEMERIS_TYPE":0,"CLASSIFICATION_TYPE":"U","NORAD_CAT_ID":65419,"ELEMENT_SET_NO":999,"REV_AT_EPOCH":2939,"BSTAR":0.0010199215,"MEAN_MOTION_DOT":0.00036316,"MEAN_MOTION_DDOT":0}]
